0 TITAN 3C TRANSTAGE DEB
1 38690U 68081Q   13281.49263815 -.00000401  00000-0  10000-3 0  3626
2 38690 008.5684 326.5241 0267168 303.7122 053.7076 00.99332171 33076
0 TITAN 3C TRANSTAGE DEB
1 38690U 68081Q   13282.49933691 -.00000400  00000-0  10000-3 0  3633
2 38690 008.5672 326.5211 0266929 303.6828 053.7363 00.99331387 33084
0 TITAN 3C TRANSTAGE DEB
1 38690U 68081Q   13283.50605487 -.00000397  00000-0  10000-3 0  3641
2 38690 008.5660 326.5148 0266886 303.6845 053.7391 00.99330685 33093
0 TITAN 3C TRANSTAGE DEB
1 38690U 68081Q   13283.50606597  .00000000  00000-0  10000-3 0  3655
2 38690 008.5644 326.5156 0268392 303.7850 053.6401 00.99327366 33098
0 TITAN 3C TRANSTAGE DEB
1 38690U 68081Q   13285.51948907 -.00000384  00000-0  10000-3 0  3669
2 38690 008.5637 326.5033 0266934 303.7214 053.7025 00.99329467 33118
0 TITAN 3C TRANSTAGE DEB
1 38690U 68081Q   13286.52620493 -.00000372  00000-0  10000-3 0  3676
2 38690 008.5625 326.4971 0267146 303.7216 053.6990 00.99328990 33124
0 TITAN 3C TRANSTAGE DEB
1 38690U 68081Q   13287.53290753 -.00000357  00000-0  10000-3 0  3684
2 38690 008.5612 326.4896 0267308 303.7148 053.6958 00.99328224 33135
0 TITAN 3C TRANSTAGE DEB
1 38690U 68081Q   13288.53962306 -.00000337  00000-0  10000-3 0  3694
2 38690 008.5604 326.4896 0268056 303.7798 053.6130 00.99327954 33140
0 TITAN 3C TRANSTAGE DEB
1 38690U 68081Q   13289.54634613 -.00000314  00000-0  10000-3 0  3700
2 38690 008.5594 326.4844 0268177 303.8130 053.5737 00.99327685 33150
0 TITAN 3C TRANSTAGE DEB
1 38690U 68081Q   13290.55301428  .00000000  00000-0  10000-3 0  3710
2 38690 008.5583 326.4679 0267194 303.8856 053.5176 00.99324311 33168
0 TITAN 3C TRANSTAGE DEB
1 38690U 68081Q   13290.55306725 -.00000287  00000-0  10000-3 0  3713
2 38690 008.5583 326.4792 0268442 303.8594 053.5187 00.99327391 33163
0 TITAN 3C TRANSTAGE DEB
1 38690U 68081Q   13292.56654144 -.00000228  00000-0  10000-3 0  3723
2 38690 008.5562 326.4678 0268250 303.8394 053.5415 00.99327235 33181
0 TITAN 3C TRANSTAGE DEB
1 38690U 68081Q   13293.57326584 -.00000196  00000-0  10000-3 0  3734
2 38690 008.5552 326.4628 0268328 303.8706 053.5023 00.99327022 33198
0 TITAN 3C TRANSTAGE DEB
1 38690U 68081Q   13294.58002507 -.00000164  00000-0  10000-3 0  3748
2 38690 008.5541 326.4582 0268676 303.8742 053.4986 00.99326807 33200
